[
  {
    "OBJECT_NAME": "STARLINK-32092",
    "OBJECT_ID": "24086U",
    "EPOCH": "2025-11-11T05:26:59.670528",
    "MEAN_MOTION": 15.27572842,
    "ECCENTRICITY": 0.0001129,
    "INCLINATION": 42.9988,
    "RA_OF_ASC_NODE": 9.01,
    "ARG_OF_PERICENTER": 257.4778,
    "MEAN_ANOMALY": 102.5947,
    "EPHEMERIS_TYPE": 0,
    "CLASSIFICATION_TYPE": "U",
    "NORAD_CAT_ID": 59700,
    "ELEMENT_SET_NO": 999,
    "REV_AT_EPOCH": 8599,
    "BSTAR": 0.00068982,
    "MEAN_MOTION_DOT": 0.00018764,
    "MEAN_MOTION_DDOT": 0.0,
    "TLE_LINE1": "1 59700U 24086U   25315.22707952  .00018764  00000+0  68982-3 0  9992",
    "TLE_LINE2": "2 59700  42.9988   9.0100 0001129 257.4778 102.5947 15.27572842 85998",
    "COMMENT": "Grouped by shell and plane from TLE"
  },
  {
    "OBJECT_NAME": "STARLINK-32093",
    "OBJECT_ID": "24086V",
    "EPOCH": "2025-11-11T03:49:05.922912",
    "MEAN_MOTION": 15.27561361,
    "ECCENTRICITY": 8.04e-05,
    "INCLINATION": 43.008,
    "RA_OF_ASC_NODE": 9.3669,
    "ARG_OF_PERICENTER": 240.5185,
    "MEAN_ANOMALY": 119.5587,
    "EPHEMERIS_TYPE": 0,
    "CLASSIFICATION_TYPE": "U",
    "NORAD_CAT_ID": 59701,
    "ELEMENT_SET_NO": 999,
    "REV_AT_EPOCH": 8598,
    "BSTAR": 0.00038984,
    "MEAN_MOTION_DOT": 0.00010474,
    "MEAN_MOTION_DDOT": 0.0,
    "TLE_LINE1": "1 59701U 24086V   25315.15909633  .00010474  00000+0  38984-3 0  9994",
    "TLE_LINE2": "2 59701  43.0080   9.3669 0000804 240.5185 119.5587 15.27561361 85982",
    "COMMENT": "Grouped by shell and plane from TLE"
  },
  {
    "OBJECT_NAME": "STARLINK-32087",
    "OBJECT_ID": "24086W",
    "EPOCH": "2025-11-11T05:06:37.192608",
    "MEAN_MOTION": 15.27583089,
    "ECCENTRICITY": 6.88e-05,
    "INCLINATION": 43.0013,
    "RA_OF_ASC_NODE": 8.9035,
    "ARG_OF_PERICENTER": 208.7102,
    "MEAN_ANOMALY": 151.3712,
    "EPHEMERIS_TYPE": 0,
    "CLASSIFICATION_TYPE": "U",
    "NORAD_CAT_ID": 59702,
    "ELEMENT_SET_NO": 999,
    "REV_AT_EPOCH": 8599,
    "BSTAR": 4.2656e-05,
    "MEAN_MOTION_DOT": 9.12e-06,
    "MEAN_MOTION_DDOT": 0.0,
    "TLE_LINE1": "1 59702U 24086W   25315.21293047  .00000912  00000+0  42656-4 0  9995",
    "TLE_LINE2": "2 59702  43.0013   8.9035 0000688 208.7102 151.3712 15.27583089 85992",
    "COMMENT": "Grouped by shell and plane from TLE"
  },
  {
    "OBJECT_NAME": "STARLINK-32086",
    "OBJECT_ID": "24086X",
    "EPOCH": "2025-11-11T04:40:41.641824",
    "MEAN_MOTION": 15.27603844,
    "ECCENTRICITY": 0.000136,
    "INCLINATION": 43.005,
    "RA_OF_ASC_NODE": 8.7725,
    "ARG_OF_PERICENTER": 277.1538,
    "MEAN_ANOMALY": 82.9159,
    "EPHEMERIS_TYPE": 0,
    "CLASSIFICATION_TYPE": "U",
    "NORAD_CAT_ID": 59703,
    "ELEMENT_SET_NO": 999,
    "REV_AT_EPOCH": 8599,
    "BSTAR": 0.00013736,
    "MEAN_MOTION_DOT": 3.522e-05,
    "MEAN_MOTION_DDOT": 0.0,
    "TLE_LINE1": "1 59703U 24086X   25315.19492641  .00003522  00000+0  13736-3 0  9990",
    "TLE_LINE2": "2 59703  43.0050   8.7725 0001360 277.1538  82.9159 15.27603844 85995",
    "COMMENT": "Grouped by shell and plane from TLE"
  },
  {
    "OBJECT_NAME": "STARLINK-32098",
    "OBJECT_ID": "24086Y",
    "EPOCH": "2025-11-11T04:03:55.598400",
    "MEAN_MOTION": 15.27585358,
    "ECCENTRICITY": 0.0001537,
    "INCLINATION": 43.0018,
    "RA_OF_ASC_NODE": 9.4383,
    "ARG_OF_PERICENTER": 268.5988,
    "MEAN_ANOMALY": 91.4687,
    "EPHEMERIS_TYPE": 0,
    "CLASSIFICATION_TYPE": "U",
    "NORAD_CAT_ID": 59704,
    "ELEMENT_SET_NO": 999,
    "REV_AT_EPOCH": 8598,
    "BSTAR": 0.00017226,
    "MEAN_MOTION_DOT": 4.482e-05,
    "MEAN_MOTION_DDOT": 0.0,
    "TLE_LINE1": "1 59704U 24086Y   25315.16939350  .00004482  00000+0  17226-3 0  9995",
    "TLE_LINE2": "2 59704  43.0018   9.4383 0001537 268.5988  91.4687 15.27585358 85986",
    "COMMENT": "Grouped by shell and plane from TLE"
  },
  {
    "OBJECT_NAME": "STARLINK-33932",
    "OBJECT_ID": "25091A",
    "EPOCH": "2025-11-11T03:24:29.787552",
    "MEAN_MOTION": 15.27599398,
    "ECCENTRICITY": 0.0001718,
    "INCLINATION": 43.0011,
    "RA_OF_ASC_NODE": 1.8705,
    "ARG_OF_PERICENTER": 285.2857,
    "MEAN_ANOMALY": 74.7805,
    "EPHEMERIS_TYPE": 0,
    "CLASSIFICATION_TYPE": "U",
    "NORAD_CAT_ID": 63775,
    "ELEMENT_SET_NO": 999,
    "REV_AT_EPOCH": 3081,
    "BSTAR": 0.0013631,
    "MEAN_MOTION_DOT": 0.00037461,
    "MEAN_MOTION_DDOT": 0.0,
    "TLE_LINE1": "1 63775U 25091A   25315.14201143  .00037461  00000+0  13631-2 0  9993",
    "TLE_LINE2": "2 63775  43.0011   1.8705 0001718 285.2857  74.7805 15.27599398 30815",
    "COMMENT": "Grouped by shell and plane from TLE"
  },
  {
    "OBJECT_NAME": "STARLINK-33930",
    "OBJECT_ID": "25091B",
    "EPOCH": "2025-11-11T04:14:28.367808",
    "MEAN_MOTION": 15.27604126,
    "ECCENTRICITY": 0.0004239,
    "INCLINATION": 43.0052,
    "RA_OF_ASC_NODE": 2.1363,
    "ARG_OF_PERICENTER": 297.1114,
    "MEAN_ANOMALY": 62.9305,
    "EPHEMERIS_TYPE": 0,
    "CLASSIFICATION_TYPE": "U",
    "NORAD_CAT_ID": 63776,
    "ELEMENT_SET_NO": 999,
    "REV_AT_EPOCH": 3077,
    "BSTAR": 0.0017751,
    "MEAN_MOTION_DOT": 0.00048956,
    "MEAN_MOTION_DDOT": 0.0,
    "TLE_LINE1": "1 63776U 25091B   25315.17671722  .00048956  00000+0  17751-2 0  9999",
    "TLE_LINE2": "2 63776  43.0052   2.1363 0004239 297.1114  62.9305 15.27604126 30779",
    "COMMENT": "Grouped by shell and plane from TLE"
  },
  {
    "OBJECT_NAME": "STARLINK-33938",
    "OBJECT_ID": "25091D",
    "EPOCH": "2025-11-11T03:48:34.455168",
    "MEAN_MOTION": 15.27586259,
    "ECCENTRICITY": 0.0003715,
    "INCLINATION": 42.9988,
    "RA_OF_ASC_NODE": 2.0007,
    "ARG_OF_PERICENTER": 290.8053,
    "MEAN_ANOMALY": 69.2401,
    "EPHEMERIS_TYPE": 0,
    "CLASSIFICATION_TYPE": "U",
    "NORAD_CAT_ID": 63778,
    "ELEMENT_SET_NO": 999,
    "REV_AT_EPOCH": 3086,
    "BSTAR": 0.0015419,
    "MEAN_MOTION_DOT": 0.00042425,
    "MEAN_MOTION_DDOT": 0.0,
    "TLE_LINE1": "1 63778U 25091D   25315.15873212  .00042425  00000+0  15419-2 0  9991",
    "TLE_LINE2": "2 63778  42.9988   2.0007 0003715 290.8053  69.2401 15.27586259 30864",
    "COMMENT": "Grouped by shell and plane from TLE"
  },
  {
    "OBJECT_NAME": "STARLINK-33881",
    "OBJECT_ID": "25091E",
    "EPOCH": "2025-11-11T04:23:42.648864",
    "MEAN_MOTION": 15.27607981,
    "ECCENTRICITY": 0.0001239,
    "INCLINATION": 43.0028,
    "RA_OF_ASC_NODE": 2.1821,
    "ARG_OF_PERICENTER": 269.2708,
    "MEAN_ANOMALY": 90.8002,
    "EPHEMERIS_TYPE": 0,
    "CLASSIFICATION_TYPE": "U",
    "NORAD_CAT_ID": 63779,
    "ELEMENT_SET_NO": 999,
    "REV_AT_EPOCH": 3077,
    "BSTAR": 0.0013822,
    "MEAN_MOTION_DOT": 0.00038001,
    "MEAN_MOTION_DDOT": 0.0,
    "TLE_LINE1": "1 63779U 25091E   25315.18313251  .00038001  00000+0  13822-2 0  9998",
    "TLE_LINE2": "2 63779  43.0028   2.1821 0001239 269.2708  90.8002 15.27607981 30776",
    "COMMENT": "Grouped by shell and plane from TLE"
  },
  {
    "OBJECT_NAME": "STARLINK-33846",
    "OBJECT_ID": "25091F",
    "EPOCH": "2025-11-11T04:08:52.581984",
    "MEAN_MOTION": 15.27576897,
    "ECCENTRICITY": 0.0001887,
    "INCLINATION": 43.0013,
    "RA_OF_ASC_NODE": 2.1043,
    "ARG_OF_PERICENTER": 252.4766,
    "MEAN_ANOMALY": 107.5879,
    "EPHEMERIS_TYPE": 0,
    "CLASSIFICATION_TYPE": "U",
    "NORAD_CAT_ID": 63780,
    "ELEMENT_SET_NO": 999,
    "REV_AT_EPOCH": 3082,
    "BSTAR": 0.0008508200000000001,
    "MEAN_MOTION_DOT": 0.00023223,
    "MEAN_MOTION_DDOT": 0.0,
    "TLE_LINE1": "1 63780U 25091F   25315.17283081  .00023223  00000+0  85082-3 0  9994",
    "TLE_LINE2": "2 63780  43.0013   2.1043 0001887 252.4766 107.5879 15.27576897 30820",
    "COMMENT": "Grouped by shell and plane from TLE"
  },
  {
    "OBJECT_NAME": "STARLINK-33883",
    "OBJECT_ID": "25091G",
    "EPOCH": "2025-11-11T04:03:21.261312",
    "MEAN_MOTION": 15.27588668,
    "ECCENTRICITY": 6.55e-05,
    "INCLINATION": 42.9996,
    "RA_OF_ASC_NODE": 2.0764,
    "ARG_OF_PERICENTER": 297.6865,
    "MEAN_ANOMALY": 62.392,
    "EPHEMERIS_TYPE": 0,
    "CLASSIFICATION_TYPE": "U",
    "NORAD_CAT_ID": 63781,
    "ELEMENT_SET_NO": 999,
    "REV_AT_EPOCH": 3077,
    "BSTAR": 0.0006216300000000001,
    "MEAN_MOTION_DOT": 0.00016888,
    "MEAN_MOTION_DDOT": 0.0,
    "TLE_LINE1": "1 63781U 25091G   25315.16899608  .00016888  00000+0  62163-3 0  9996",
    "TLE_LINE2": "2 63781  42.9996   2.0764 0000655 297.6865  62.3920 15.27588668 30779",
    "COMMENT": "Grouped by shell and plane from TLE"
  },
  {
    "OBJECT_NAME": "STARLINK-33842",
    "OBJECT_ID": "25091H",
    "EPOCH": "2025-11-11T05:17:09.844512",
    "MEAN_MOTION": 15.27579285,
    "ECCENTRICITY": 0.0001352,
    "INCLINATION": 42.9992,
    "RA_OF_ASC_NODE": 1.5996,
    "ARG_OF_PERICENTER": 250.13,
    "MEAN_ANOMALY": 109.9406,
    "EPHEMERIS_TYPE": 0,
    "CLASSIFICATION_TYPE": "U",
    "NORAD_CAT_ID": 63782,
    "ELEMENT_SET_NO": 999,
    "REV_AT_EPOCH": 3087,
    "BSTAR": 0.001251,
    "MEAN_MOTION_DOT": 0.00034322,
    "MEAN_MOTION_DDOT": 0.0,
    "TLE_LINE1": "1 63782U 25091H   25315.22025283  .00034322  00000+0  12510-2 0  9997",
    "TLE_LINE2": "2 63782  42.9992   1.5996 0001352 250.1300 109.9406 15.27579285 30873",
    "COMMENT": "Grouped by shell and plane from TLE"
  },
  {
    "OBJECT_NAME": "STARLINK-33892",
    "OBJECT_ID": "25091J",
    "EPOCH": "2025-11-11T05:15:18.633888",
    "MEAN_MOTION": 15.27598763,
    "ECCENTRICITY": 7.78e-05,
    "INCLINATION": 43.0028,
    "RA_OF_ASC_NODE": 1.5902,
    "ARG_OF_PERICENTER": 218.1066,
    "MEAN_ANOMALY": 141.9731,
    "EPHEMERIS_TYPE": 0,
    "CLASSIFICATION_TYPE": "U",
    "NORAD_CAT_ID": 63783,
    "ELEMENT_SET_NO": 999,
    "REV_AT_EPOCH": 3078,
    "BSTAR": 0.001069,
    "MEAN_MOTION_DOT": 0.00029288,
    "MEAN_MOTION_DDOT": 0.0,
    "TLE_LINE1": "1 63783U 25091J   25315.21896567  .00029288  00000+0  10690-2 0  9990",
    "TLE_LINE2": "2 63783  43.0028   1.5902 0000778 218.1066 141.9731 15.27598763 30786",
    "COMMENT": "Grouped by shell and plane from TLE"
  }
]